STARLINK-1651           
1 46366U 20062AT  26061.89895882  .11338563  12405-4  52076-3 0  9996
2 46366  53.0202 299.8381 0006417 248.9983 111.0378 16.42914037304780
STARLINK-1687           
1 46541U 20070K   26062.05855988  .01896983  35226-2  14091-2 0  9994
2 46541  53.0299 124.7699 0009972   4.9353 355.1779 16.15564079299640
STARLINK-1712           
1 46581U 20070BB  26061.83335647  .00429774  84356-4  11202-2 0  9998
2 46581  53.0306 115.6492 0006990 334.1429 281.8588 15.94407489  6019
STARLINK-1848           
1 46740U 20074B   26061.88088104  .03521303  11928-4  12094-2 0  9996
2 46740  53.0253 285.7918 0006625 246.3230 113.7115 16.24659105296577
WILDTRACKCUBE-SIMBA     
1 47941U 21022K   26061.77831130  .01594751  20789-2  13686-2 0  9993
2 47941  97.3814 343.4750 0007101 121.4058 238.7923 16.13912444274737
JILIN-1 GAOFEN 3D02     
1 49005U 21061C   26061.85104106  .01219786  95390-3  13209-2 0  9998
2 49005  97.2934 142.2697 0004724 239.7550 120.3267 16.10153929259715
STARLINK-3269           
1 50194U 21125AQ  26061.77562723  .01810870  27892-2  16396-2 0  9996
2 50194  53.2004 165.9931 0011033 335.8269  24.2248 16.12512162237217
LYNK TOWER 1            
1 52162U 22033F   26061.78838928  .00607357  18917-3  74408-3 0  9997
2 52162  97.2574 166.8623 0005924 198.1753 161.9319 16.08007939220139
STARLINK-3767           
1 52376U 22045AX  26061.83335647  .01274723  80888-3  30828-2 0  9994
2 52376  53.2125 207.3804 0001051  65.6487  40.8317 15.95942436  5837
NUSAT-28 (ALICE LEE)    
1 52747U 22057R   26061.88569793  .00465954  89524-4  12093-2 0  9993
2 52747  97.4982 211.0229 0006717 290.2851  69.7702 15.95011648210960
STARLINK-6284           
1 56403U 23061AF  26061.99976766  .02226794  90178-5  70969-3 0  9990
2 56403  42.9910 178.6742 0005921 305.7876  54.2460 16.25300943156380
STARLINK-6201           
1 56486U 23064AQ  26061.83335647  .00869415  32454-3  25620-2 0  9999
2 56486  69.9977 133.2838 0003620 279.0903  10.5370 15.92494715  5836
SHIYAN-25 (SY-25)       
1 57047U 23087A   26061.84154503 -.00085753  47409-5 -15786-3 0  9997
2 57047  96.7149 122.9176 0012483 243.5328 116.4672 16.00930911157790
STARLINK-6151           
1 57118U 23090T   26061.81664829  .01209511  96672-3  10093-2 0  9992
2 57118  42.9701 191.2539 0017416 339.7744  20.2447 16.12750797150777
STARLINK-30210          
1 57292U 23096C   26061.78101889  .00725769  24986-3  12361-2 0  9995
2 57292  42.9636 178.9661 0026101 353.8912   6.1644 16.01049626147408
STARLINK-30232          
1 57303U 23096P   26061.74327721  .00771717  28572-3  12940-2 0  9991
2 57303  42.9711 178.7921 0025570 355.1737   4.8892 16.01345841147386
