[{"OBJECT_NAME":"STARLINK-1651","OBJECT_ID":"2020-062AT","EPOCH":"2026-03-02T21:34:30.042048","MEAN_MOTION":16.42914037,"ECCENTRICITY":0.0006417,"INCLINATION":53.0202,"RA_OF_ASC_NODE":299.8381,"ARG_OF_PERICENTER":248.9983,"MEAN_ANOMALY":111.0378,"EPHEMERIS_TYPE":0,"CLASSIFICATION_TYPE":"U","NORAD_CAT_ID":46366,"ELEMENT_SET_NO":999,"REV_AT_EPOCH":30478,"BSTAR":0.00052076,"MEAN_MOTION_DOT":0.11338563,"MEAN_MOTION_DDOT":1.2405e-5},{"OBJECT_NAME":"STARLINK-1687","OBJECT_ID":"2020-070K","EPOCH":"2026-03-03T01:24:19.573632","MEAN_MOTION":16.15564079,"ECCENTRICITY":0.0009972,"INCLINATION":53.0299,"RA_OF_ASC_NODE":124.7699,"ARG_OF_PERICENTER":4.9353,"MEAN_ANOMALY":355.1779,"EPHEMERIS_TYPE":0,"CLASSIFICATION_TYPE":"U","NORAD_CAT_ID":46541,"ELEMENT_SET_NO":999,"REV_AT_EPOCH":29964,"BSTAR":0.0014091,"MEAN_MOTION_DOT":0.01896983,"MEAN_MOTION_DDOT":0.0035226},{"OBJECT_NAME":"STARLINK-1712","OBJECT_ID":"2020-070BB","EPOCH":"2026-03-02T20:00:01.999008","MEAN_MOTION":15.94407489,"ECCENTRICITY":0.000699,"INCLINATION":53.0306,"RA_OF_ASC_NODE":115.6492,"ARG_OF_PERICENTER":334.1429,"MEAN_ANOMALY":281.8588,"EPHEMERIS_TYPE":0,"CLASSIFICATION_TYPE":"U","NORAD_CAT_ID":46581,"ELEMENT_SET_NO":999,"REV_AT_EPOCH":601,"BSTAR":0.0011202,"MEAN_MOTION_DOT":0.00429774,"MEAN_MOTION_DDOT":8.4356e-5},{"OBJECT_NAME":"STARLINK-1848","OBJECT_ID":"2020-074B","EPOCH":"2026-03-02T21:08:28.121856","MEAN_MOTION":16.24659105,"ECCENTRICITY":0.0006625,"INCLINATION":53.0253,"RA_OF_ASC_NODE":285.7918,"ARG_OF_PERICENTER":246.323,"MEAN_ANOMALY":113.7115,"EPHEMERIS_TYPE":0,"CLASSIFICATION_TYPE":"U","NORAD_CAT_ID":46740,"ELEMENT_SET_NO":999,"REV_AT_EPOCH":29657,"BSTAR":0.0012094,"MEAN_MOTION_DOT":0.03521303,"MEAN_MOTION_DDOT":1.1928e-5},{"OBJECT_NAME":"WILDTRACKCUBE-SIMBA","OBJECT_ID":"2021-022K","EPOCH":"2026-03-02T18:40:46.096320","MEAN_MOTION":16.13912444,"ECCENTRICITY":0.0007101,"INCLINATION":97.3814,"RA_OF_ASC_NODE":343.475,"ARG_OF_PERICENTER":121.4058,"MEAN_ANOMALY":238.7923,"EPHEMERIS_TYPE":0,"CLASSIFICATION_TYPE":"U","NORAD_CAT_ID":47941,"ELEMENT_SET_NO":999,"REV_AT_EPOCH":27473,"BSTAR":0.0013686,"MEAN_MOTION_DOT":0.01594751,"MEAN_MOTION_DDOT":0.0020789},{"OBJECT_NAME":"JILIN-1 GAOFEN 3D02","OBJECT_ID":"2021-061C","EPOCH":"2026-03-02T20:25:29.947584","MEAN_MOTION":16.10153929,"ECCENTRICITY":0.0004724,"INCLINATION":97.2934,"RA_OF_ASC_NODE":142.2697,"ARG_OF_PERICENTER":239.755,"MEAN_ANOMALY":120.3267,"EPHEMERIS_TYPE":0,"CLASSIFICATION_TYPE":"U","NORAD_CAT_ID":49005,"ELEMENT_SET_NO":999,"REV_AT_EPOCH":25971,"BSTAR":0.0013209,"MEAN_MOTION_DOT":0.01219786,"MEAN_MOTION_DDOT":0.0009539},{"OBJECT_NAME":"STARLINK-3269","OBJECT_ID":"2021-125AQ","EPOCH":"2026-03-02T18:36:54.192672","MEAN_MOTION":16.12512162,"ECCENTRICITY":0.0011033,"INCLINATION":53.2004,"RA_OF_ASC_NODE":165.9931,"ARG_OF_PERICENTER":335.8269,"MEAN_ANOMALY":24.2248,"EPHEMERIS_TYPE":0,"CLASSIFICATION_TYPE":"U","NORAD_CAT_ID":50194,"ELEMENT_SET_NO":999,"REV_AT_EPOCH":23721,"BSTAR":0.0016396,"MEAN_MOTION_DOT":0.0181087,"MEAN_MOTION_DDOT":0.0027892},{"OBJECT_NAME":"LYNK TOWER 1","OBJECT_ID":"2022-033F","EPOCH":"2026-03-02T18:55:16.833792","MEAN_MOTION":16.08007939,"ECCENTRICITY":0.0005924,"INCLINATION":97.2574,"RA_OF_ASC_NODE":166.8623,"ARG_OF_PERICENTER":198.1753,"MEAN_ANOMALY":161.9319,"EPHEMERIS_TYPE":0,"CLASSIFICATION_TYPE":"U","NORAD_CAT_ID":52162,"ELEMENT_SET_NO":999,"REV_AT_EPOCH":22013,"BSTAR":0.00074408,"MEAN_MOTION_DOT":0.00607357,"MEAN_MOTION_DDOT":0.00018917},{"OBJECT_NAME":"STARLINK-3767","OBJECT_ID":"2022-045AX","EPOCH":"2026-03-02T20:00:01.999008","MEAN_MOTION":15.95942436,"ECCENTRICITY":0.0001051,"INCLINATION":53.2125,"RA_OF_ASC_NODE":207.3804,"ARG_OF_PERICENTER":65.6487,"MEAN_ANOMALY":40.8317,"EPHEMERIS_TYPE":0,"CLASSIFICATION_TYPE":"U","NORAD_CAT_ID":52376,"ELEMENT_SET_NO":999,"REV_AT_EPOCH":583,"BSTAR":0.0030828,"MEAN_MOTION_DOT":0.01274723,"MEAN_MOTION_DDOT":0.00080888},{"OBJECT_NAME":"NUSAT-28 (ALICE LEE)","OBJECT_ID":"2022-057R","EPOCH":"2026-03-02T21:15:24.301152","MEAN_MOTION":15.95011648,"ECCENTRICITY":0.0006717,"INCLINATION":97.4982,"RA_OF_ASC_NODE":211.0229,"ARG_OF_PERICENTER":290.2851,"MEAN_ANOMALY":69.7702,"EPHEMERIS_TYPE":0,"CLASSIFICATION_TYPE":"U","NORAD_CAT_ID":52747,"ELEMENT_SET_NO":999,"REV_AT_EPOCH":21096,"BSTAR":0.0012093,"MEAN_MOTION_DOT":0.00465954,"MEAN_MOTION_DDOT":8.9524e-5},{"OBJECT_NAME":"STARLINK-6284","OBJECT_ID":"2023-061AF","EPOCH":"2026-03-02T23:59:39.925824","MEAN_MOTION":16.25300943,"ECCENTRICITY":0.0005921,"INCLINATION":42.991,"RA_OF_ASC_NODE":178.6742,"ARG_OF_PERICENTER":305.7876,"MEAN_ANOMALY":54.246,"EPHEMERIS_TYPE":0,"CLASSIFICATION_TYPE":"U","NORAD_CAT_ID":56403,"ELEMENT_SET_NO":999,"REV_AT_EPOCH":15638,"BSTAR":0.00070969,"MEAN_MOTION_DOT":0.02226794,"MEAN_MOTION_DDOT":9.0178e-6},{"OBJECT_NAME":"STARLINK-6201","OBJECT_ID":"2023-064AQ","EPOCH":"2026-03-02T20:00:01.999008","MEAN_MOTION":15.92494715,"ECCENTRICITY":0.000362,"INCLINATION":69.9977,"RA_OF_ASC_NODE":133.2838,"ARG_OF_PERICENTER":279.0903,"MEAN_ANOMALY":10.537,"EPHEMERIS_TYPE":0,"CLASSIFICATION_TYPE":"U","NORAD_CAT_ID":56486,"ELEMENT_SET_NO":999,"REV_AT_EPOCH":583,"BSTAR":0.002562,"MEAN_MOTION_DOT":0.00869415,"MEAN_MOTION_DDOT":0.00032454},{"OBJECT_NAME":"SHIYAN-25 (SY-25)","OBJECT_ID":"2023-087A","EPOCH":"2026-03-02T20:11:49.490592","MEAN_MOTION":16.00930911,"ECCENTRICITY":0.0012483,"INCLINATION":96.7149,"RA_OF_ASC_NODE":122.9176,"ARG_OF_PERICENTER":243.5328,"MEAN_ANOMALY":116.4672,"EPHEMERIS_TYPE":0,"CLASSIFICATION_TYPE":"U","NORAD_CAT_ID":57047,"ELEMENT_SET_NO":999,"REV_AT_EPOCH":15779,"BSTAR":-0.00015786,"MEAN_MOTION_DOT":-0.00085753,"MEAN_MOTION_DDOT":4.7409e-6},{"OBJECT_NAME":"STARLINK-6151","OBJECT_ID":"2023-090T","EPOCH":"2026-03-02T19:35:58.412256","MEAN_MOTION":16.12750797,"ECCENTRICITY":0.0017416,"INCLINATION":42.9701,"RA_OF_ASC_NODE":191.2539,"ARG_OF_PERICENTER":339.7744,"MEAN_ANOMALY":20.2447,"EPHEMERIS_TYPE":0,"CLASSIFICATION_TYPE":"U","NORAD_CAT_ID":57118,"ELEMENT_SET_NO":999,"REV_AT_EPOCH":15077,"BSTAR":0.0010093,"MEAN_MOTION_DOT":0.01209511,"MEAN_MOTION_DDOT":0.00096672},{"OBJECT_NAME":"STARLINK-30210","OBJECT_ID":"2023-096C","EPOCH":"2026-03-02T18:44:40.032096","MEAN_MOTION":16.01049626,"ECCENTRICITY":0.0026101,"INCLINATION":42.9636,"RA_OF_ASC_NODE":178.9661,"ARG_OF_PERICENTER":353.8912,"MEAN_ANOMALY":6.1644,"EPHEMERIS_TYPE":0,"CLASSIFICATION_TYPE":"U","NORAD_CAT_ID":57292,"ELEMENT_SET_NO":999,"REV_AT_EPOCH":14740,"BSTAR":0.0012361,"MEAN_MOTION_DOT":0.00725769,"MEAN_MOTION_DDOT":0.00024986},{"OBJECT_NAME":"STARLINK-30232","OBJECT_ID":"2023-096P","EPOCH":"2026-03-02T17:50:19.150944","MEAN_MOTION":16.01345841,"ECCENTRICITY":0.002557,"INCLINATION":42.9711,"RA_OF_ASC_NODE":178.7921,"ARG_OF_PERICENTER":355.1737,"MEAN_ANOMALY":4.8892,"EPHEMERIS_TYPE":0,"CLASSIFICATION_TYPE":"U","NORAD_CAT_ID":57303,"ELEMENT_SET_NO":999,"REV_AT_EPOCH":14738,"BSTAR":0.001294,"MEAN_MOTION_DOT":0.00771717,"MEAN_MOTION_DDOT":0.00028572}]
